STARLINK-36217          
1 67120U 25299U   26002.25003472 -.00106012  00000+0 -18243-2 0  9997
2 67120  42.9993 191.9308 0001656 245.9527 198.6772 15.50600620  4107
STARLINK-36124          
1 67121U 25299V   26002.25003472 -.00125601  00000+0 -21681-2 0  9993
2 67121  42.9995 191.9157 0001755 249.7695 200.6088 15.50597103  4105
STARLINK-36188          
1 67122U 25299W   26002.25003472 -.00133588  00000+0 -23084-2 0  9996
2 67122  42.9994 191.9116 0001763 250.6495 201.6488 15.50601388  4104
STARLINK-36151          
1 67123U 25299X   26002.25003472 -.00163384  00000+0 -28308-2 0  9998
2 67123  42.9994 191.9226 0001903 268.2836 180.1716 15.50644155  4101
STARLINK-36195          
1 67124U 25299Y   26002.25003472 -.00125601  00000+0 -21656-2 0  9998
2 67124  42.9992 191.9078 0002179 268.5452 185.6615 15.50628803  4108
STARLINK-36219          
1 67125U 25299Z   26002.25003472 -.00184656  00000+0 -32073-2 0  9999
2 67125  42.9995 191.9022 0001787 271.4311 184.6878 15.50657881  4100
STARLINK-36223          
1 67126U 25299AA  26002.25003472 -.00169439  00000+0 -29379-2 0  9997
2 67126  42.9993 191.8976 0002144 271.4850 186.5527 15.50645832  4107
STARLINK-36164          
1 67127U 25299AB  26002.25003472 -.00164923  00000+0 -28583-2 0  9997
2 67127  42.9992 191.8929 0002221 268.7047 191.2497 15.50641561  4102
STARLINK-35685          
1 67128U 25299AC  26002.25003472 -.00122280  00000+0 -21075-2 0  9997
2 67128  42.9992 191.8829 0002175 268.1155 195.6779 15.50626145  4106
STARLINK-36214          
1 67129U 25299AD  26002.25003472 -.00186950  00000+0 -32479-2 0  9992
2 67129  42.9995 191.8881 0001660 266.5856 195.2810 15.50660853  4102
STARLINK-36194          
1 67130U 25299AE  26002.25003472 -.00121081  00000+0 -20874-2 0  9994
2 67130  42.9993 191.8797 0001782 261.4117 204.3141 15.50614110  4101
ZIYUAN 3-04 (ZY 3-04)   
1 67131U 25300A   25361.09375736  .00002035  00000+0  94249-4 0  9996
2 67131  97.4921  75.1314 0003125 152.4137 207.7265 15.21251311  1672
