CCSDS_OMM_VERS = 2.0
CREATION_DATE  = 
ORIGINATOR     = 

OBJECT_NAME    = STARLINK-36217
OBJECT_ID      = 2025-299U
CENTER_NAME    = EARTH
REF_FRAME      = TEME
TIME_SYSTEM    = UTC
MEAN_ELEMENT_THEORY = SGP/SGP4

EPOCH          = 2026-01-02T06:00:02.999808
MEAN_MOTION    = 15.50600620
ECCENTRICITY   = .00016569
INCLINATION    = 42.9993
RA_OF_ASC_NODE = 191.9308
ARG_OF_PERICENTER = 245.9527
MEAN_ANOMALY   = 198.6772

EPHEMERIS_TYPE = 0
CLASSIFICATION_TYPE = U
NORAD_CAT_ID   = 67120
ELEMENT_SET_NO = 999
REV_AT_EPOCH   = 410
BSTAR          = -.18243014E-2
MEAN_MOTION_DOT = -.106012E-2
MEAN_MOTION_DDOT = 0

CCSDS_OMM_VERS = 2.0
CREATION_DATE  = 
ORIGINATOR     = 

OBJECT_NAME    = STARLINK-36124
OBJECT_ID      = 2025-299V
CENTER_NAME    = EARTH
REF_FRAME      = TEME
TIME_SYSTEM    = UTC
MEAN_ELEMENT_THEORY = SGP/SGP4

EPOCH          = 2026-01-02T06:00:02.999808
MEAN_MOTION    = 15.50597103
ECCENTRICITY   = .00017555
INCLINATION    = 42.9995
RA_OF_ASC_NODE = 191.9157
ARG_OF_PERICENTER = 249.7695
MEAN_ANOMALY   = 200.6088

EPHEMERIS_TYPE = 0
CLASSIFICATION_TYPE = U
NORAD_CAT_ID   = 67121
ELEMENT_SET_NO = 999
REV_AT_EPOCH   = 410
BSTAR          = -.21681294E-2
MEAN_MOTION_DOT = -.125601E-2
MEAN_MOTION_DDOT = 0

CCSDS_OMM_VERS = 2.0
CREATION_DATE  = 
ORIGINATOR     = 

OBJECT_NAME    = STARLINK-36188
OBJECT_ID      = 2025-299W
CENTER_NAME    = EARTH
REF_FRAME      = TEME
TIME_SYSTEM    = UTC
MEAN_ELEMENT_THEORY = SGP/SGP4

EPOCH          = 2026-01-02T06:00:02.999808
MEAN_MOTION    = 15.50601388
ECCENTRICITY   = .00017633
INCLINATION    = 42.9994
RA_OF_ASC_NODE = 191.9116
ARG_OF_PERICENTER = 250.6495
MEAN_ANOMALY   = 201.6488

EPHEMERIS_TYPE = 0
CLASSIFICATION_TYPE = U
NORAD_CAT_ID   = 67122
ELEMENT_SET_NO = 999
REV_AT_EPOCH   = 410
BSTAR          = -.23083519E-2
MEAN_MOTION_DOT = -.133588E-2
MEAN_MOTION_DDOT = 0

CCSDS_OMM_VERS = 2.0
CREATION_DATE  = 
ORIGINATOR     = 

OBJECT_NAME    = STARLINK-36151
OBJECT_ID      = 2025-299X
CENTER_NAME    = EARTH
REF_FRAME      = TEME
TIME_SYSTEM    = UTC
MEAN_ELEMENT_THEORY = SGP/SGP4

EPOCH          = 2026-01-02T06:00:02.999808
MEAN_MOTION    = 15.50644155
ECCENTRICITY   = .00019039
INCLINATION    = 42.9994
RA_OF_ASC_NODE = 191.9226
ARG_OF_PERICENTER = 268.2836
MEAN_ANOMALY   = 180.1716

EPHEMERIS_TYPE = 0
CLASSIFICATION_TYPE = U
NORAD_CAT_ID   = 67123
ELEMENT_SET_NO = 999
REV_AT_EPOCH   = 410
BSTAR          = -.28308422E-2
MEAN_MOTION_DOT = -.163384E-2
MEAN_MOTION_DDOT = 0

CCSDS_OMM_VERS = 2.0
CREATION_DATE  = 
ORIGINATOR     = 

OBJECT_NAME    = STARLINK-36195
OBJECT_ID      = 2025-299Y
CENTER_NAME    = EARTH
REF_FRAME      = TEME
TIME_SYSTEM    = UTC
MEAN_ELEMENT_THEORY = SGP/SGP4

EPOCH          = 2026-01-02T06:00:02.999808
MEAN_MOTION    = 15.50628803
ECCENTRICITY   = .0002179
INCLINATION    = 42.9992
RA_OF_ASC_NODE = 191.9078
ARG_OF_PERICENTER = 268.5452
MEAN_ANOMALY   = 185.6615

EPHEMERIS_TYPE = 0
CLASSIFICATION_TYPE = U
NORAD_CAT_ID   = 67124
ELEMENT_SET_NO = 999
REV_AT_EPOCH   = 410
BSTAR          = -.21655533E-2
MEAN_MOTION_DOT = -.125601E-2
MEAN_MOTION_DDOT = 0

CCSDS_OMM_VERS = 2.0
CREATION_DATE  = 
ORIGINATOR     = 

OBJECT_NAME    = STARLINK-36219
OBJECT_ID      = 2025-299Z
CENTER_NAME    = EARTH
REF_FRAME      = TEME
TIME_SYSTEM    = UTC
MEAN_ELEMENT_THEORY = SGP/SGP4

EPOCH          = 2026-01-02T06:00:02.999808
MEAN_MOTION    = 15.50657881
ECCENTRICITY   = .00017872
INCLINATION    = 42.9995
RA_OF_ASC_NODE = 191.9022
ARG_OF_PERICENTER = 271.4311
MEAN_ANOMALY   = 184.6878

EPHEMERIS_TYPE = 0
CLASSIFICATION_TYPE = U
NORAD_CAT_ID   = 67125
ELEMENT_SET_NO = 999
REV_AT_EPOCH   = 410
BSTAR          = -.32072802E-2
MEAN_MOTION_DOT = -.184656E-2
MEAN_MOTION_DDOT = 0

CCSDS_OMM_VERS = 2.0
CREATION_DATE  = 
ORIGINATOR     = 

OBJECT_NAME    = STARLINK-36223
OBJECT_ID      = 2025-299AA
CENTER_NAME    = EARTH
REF_FRAME      = TEME
TIME_SYSTEM    = UTC
MEAN_ELEMENT_THEORY = SGP/SGP4

EPOCH          = 2026-01-02T06:00:02.999808
MEAN_MOTION    = 15.50645832
ECCENTRICITY   = .00021448
INCLINATION    = 42.9993
RA_OF_ASC_NODE = 191.8976
ARG_OF_PERICENTER = 271.4850
MEAN_ANOMALY   = 186.5527

EPHEMERIS_TYPE = 0
CLASSIFICATION_TYPE = U
NORAD_CAT_ID   = 67126
ELEMENT_SET_NO = 999
REV_AT_EPOCH   = 410
BSTAR          = -.29379484E-2
MEAN_MOTION_DOT = -.169439E-2
MEAN_MOTION_DDOT = 0

CCSDS_OMM_VERS = 2.0
CREATION_DATE  = 
ORIGINATOR     = 

OBJECT_NAME    = STARLINK-36164
OBJECT_ID      = 2025-299AB
CENTER_NAME    = EARTH
REF_FRAME      = TEME
TIME_SYSTEM    = UTC
MEAN_ELEMENT_THEORY = SGP/SGP4

EPOCH          = 2026-01-02T06:00:02.999808
MEAN_MOTION    = 15.50641561
ECCENTRICITY   = .00022214
INCLINATION    = 42.9992
RA_OF_ASC_NODE = 191.8929
ARG_OF_PERICENTER = 268.7047
MEAN_ANOMALY   = 191.2497

EPHEMERIS_TYPE = 0
CLASSIFICATION_TYPE = U
NORAD_CAT_ID   = 67127
ELEMENT_SET_NO = 999
REV_AT_EPOCH   = 410
BSTAR          = -.28582536E-2
MEAN_MOTION_DOT = -.164923E-2
MEAN_MOTION_DDOT = 0

CCSDS_OMM_VERS = 2.0
CREATION_DATE  = 
ORIGINATOR     = 

OBJECT_NAME    = STARLINK-35685
OBJECT_ID      = 2025-299AC
CENTER_NAME    = EARTH
REF_FRAME      = TEME
TIME_SYSTEM    = UTC
MEAN_ELEMENT_THEORY = SGP/SGP4

EPOCH          = 2026-01-02T06:00:02.999808
MEAN_MOTION    = 15.50626145
ECCENTRICITY   = .0002175
INCLINATION    = 42.9992
RA_OF_ASC_NODE = 191.8829
ARG_OF_PERICENTER = 268.1155
MEAN_ANOMALY   = 195.6779

EPHEMERIS_TYPE = 0
CLASSIFICATION_TYPE = U
NORAD_CAT_ID   = 67128
ELEMENT_SET_NO = 999
REV_AT_EPOCH   = 410
BSTAR          = -.21074596E-2
MEAN_MOTION_DOT = -.12228E-2
MEAN_MOTION_DDOT = 0

CCSDS_OMM_VERS = 2.0
CREATION_DATE  = 
ORIGINATOR     = 

OBJECT_NAME    = STARLINK-36214
OBJECT_ID      = 2025-299AD
CENTER_NAME    = EARTH
REF_FRAME      = TEME
TIME_SYSTEM    = UTC
MEAN_ELEMENT_THEORY = SGP/SGP4

EPOCH          = 2026-01-02T06:00:02.999808
MEAN_MOTION    = 15.50660853
ECCENTRICITY   = .00016601
INCLINATION    = 42.9995
RA_OF_ASC_NODE = 191.8881
ARG_OF_PERICENTER = 266.5856
MEAN_ANOMALY   = 195.2810

EPHEMERIS_TYPE = 0
CLASSIFICATION_TYPE = U
NORAD_CAT_ID   = 67129
ELEMENT_SET_NO = 999
REV_AT_EPOCH   = 410
BSTAR          = -.32478513E-2
MEAN_MOTION_DOT = -.18695E-2
MEAN_MOTION_DDOT = 0

CCSDS_OMM_VERS = 2.0
CREATION_DATE  = 
ORIGINATOR     = 

OBJECT_NAME    = STARLINK-36194
OBJECT_ID      = 2025-299AE
CENTER_NAME    = EARTH
REF_FRAME      = TEME
TIME_SYSTEM    = UTC
MEAN_ELEMENT_THEORY = SGP/SGP4

EPOCH          = 2026-01-02T06:00:02.999808
MEAN_MOTION    = 15.50614110
ECCENTRICITY   = .0001782
INCLINATION    = 42.9993
RA_OF_ASC_NODE = 191.8797
ARG_OF_PERICENTER = 261.4117
MEAN_ANOMALY   = 204.3141

EPHEMERIS_TYPE = 0
CLASSIFICATION_TYPE = U
NORAD_CAT_ID   = 67130
ELEMENT_SET_NO = 999
REV_AT_EPOCH   = 410
BSTAR          = -.20874151E-2
MEAN_MOTION_DOT = -.121081E-2
MEAN_MOTION_DDOT = 0

CCSDS_OMM_VERS = 2.0
CREATION_DATE  = 
ORIGINATOR     = 

OBJECT_NAME    = ZIYUAN 3-04 (ZY 3-04)
OBJECT_ID      = 2025-300A
CENTER_NAME    = EARTH
REF_FRAME      = TEME
TIME_SYSTEM    = UTC
MEAN_ELEMENT_THEORY = SGP/SGP4

EPOCH          = 2025-12-27T02:15:00.635904
MEAN_MOTION    = 15.21251311
ECCENTRICITY   = .00031253
INCLINATION    = 97.4921
RA_OF_ASC_NODE = 75.1314
ARG_OF_PERICENTER = 152.4137
MEAN_ANOMALY   = 207.7265

EPHEMERIS_TYPE = 0
CLASSIFICATION_TYPE = U
NORAD_CAT_ID   = 67131
ELEMENT_SET_NO = 999
REV_AT_EPOCH   = 167
BSTAR          = .94249032E-4
MEAN_MOTION_DOT = .2035E-4
MEAN_MOTION_DDOT = 0

